[{"OBJECT_NAME":"AMOS-17","OBJECT_ID":"2019-050A","EPOCH":"2026-04-25T13:41:29.406336","MEAN_MOTION":1.00275165,"ECCENTRICITY":0.00013197,"INCLINATION":0.0115,"RA_OF_ASC_NODE":309.9385,"ARG_OF_PERICENTER":100.3288,"MEAN_ANOMALY":25.7123,"EPHEMERIS_TYPE":0,"CLASSIFICATION_TYPE":"U","NORAD_CAT_ID":44479,"ELEMENT_SET_NO":999,"REV_AT_EPOCH":2465,"BSTAR":0,"MEAN_MOTION_DOT":9.6e-7,"MEAN_MOTION_DDOT":0}]
